IRIDIUM 63              
1 25286U 98021B   25142.12819283  .00000368  00000+0  11869-3 0  9995
2 25286  86.3962  93.0638 0002336  82.2140 277.9323 14.36525907420370
IRIDIUM 69              
1 25319U 98026A   25141.31792965  .00000445  00000+0  13251-3 0  9997
2 25319  86.3950 106.7773 0004570  99.9618 260.2098 14.40941707419190
IRIDIUM 71              
1 25320U 98026B   25141.88380592  .00000398  00000+0  11725-3 0  9991
2 25320  86.3952 101.2323 0003275 127.8827 232.2669 14.41136891420050
IRIDIUM 73              
1 25344U 98032C   25141.79994551  .00000520  00000+0  12443-3 0  9995
2 25344  86.4425  58.0219 0003004  84.8350 275.3199 14.51686570427034
IRIDIUM 82              
1 25467U 98051A   25142.22169461  .00027677  00000+0  81452-3 0  9993
2 25467  86.3653 122.4938 0089173  37.4420 323.2996 15.30977500419986
